FLOCK 4BE-13            
1 60512U 24149AW  25135.20993964  .00009941  00000+0  35602-3 0  9993
2 60512  97.4044 213.8545 0004028 247.5782 112.5031 15.28949993 41323
FLOCK 4BE-27            
1 60513U 24149AX  25134.72215612  .00006800  00000+0  26682-3 0  9996
2 60513  97.4148 213.1556 0003088 276.0631  84.0256 15.26055878 41217
FLOCK 4BE-9             
1 60514U 24149AY  25135.21074525  .00009942  00000+0  36680-3 0  9997
2 60514  97.4115 213.9466 0002271 263.3058  96.7923 15.27975055 41316
FLOCK 4BE-8             
1 60515U 24149AZ  25134.79041899  .00009213  00000+0  34413-3 0  9991
2 60515  97.4064 213.2556 0003852 266.1383  93.9416 15.27584935 41242
FLOCK 4BE-6             
1 60516U 24149BA  25135.20334050  .00008904  00000+0  33549-3 0  9998
2 60516  97.4119 213.8291 0002833 268.0045  92.0869 15.27312214 41308
FLOCK 4BE-14            
1 60517U 24149BB  25134.65713725  .00009280  00000+0  34270-3 0  9997
2 60517  97.4048 213.2645 0004302 268.7472  91.3275 15.27960468 41236
FLOCK 4BE-1             
1 60518U 24149BC  25134.73005528  .00009290  00000+0  33641-3 0  9994
2 60518  97.4106 213.6524 0003720 263.6263  96.4553 15.28609456 41252
FLOCK 4BE-28            
1 60519U 24149BD  25135.46575966  .00010655  00000+0  37455-3 0  9998
2 60519  97.4070 214.3741 0004503 267.7999  92.2725 15.29539720 41378
IPERDRONE.0             
1 60520U 24149BE  25135.21068372  .00018197  00000+0  54718-3 0  9991
2 60520  97.4092 215.0720 0004140 232.2741 127.8127 15.34437260 41393
2024-149BF              
1 60521U 24149BF  25134.73439101  .00018434  00000+0  54636-3 0  9993
2 60521  97.4110 214.8573 0003733 257.3118 102.7708 15.34893322 41337
CONNECTA IOT-2          
1 60522U 24149BG  25135.37856418  .00005963  00000+0  23870-3 0  9998
2 60522  97.4139 213.7863 0004899 281.6005  78.4683 15.25431762 41313
PTD-R (TYVAK-0127)      
1 60523U 24149BH  25135.46772998  .00029142  00000+0  74574-3 0  9991
2 60523  97.4059 216.1416 0004756 245.3644 114.7107 15.39365665 41491
CONNECTA IOT-4          
1 60524U 24149BJ  25135.22418084  .00011934  00000+0  44030-3 0  9993
2 60524  97.4103 213.7105 0005897 266.1167  93.9398 15.27914675 41306
ORESAT0.5               
1 60525U 24149BK  25135.37144395  .00012339  00000+0  42534-3 0  9998
2 60525  97.4042 214.3879 0005777 259.3192 100.7398 15.30133156 41378
DEIMOS                  
1 60526U 24149BL  25135.20282078  .00011169  00000+0  38903-3 0  9997
2 60526  97.4100 214.3678 0005771 267.1144  92.9436 15.29821952 41347
CUAVA-2                 
1 60527U 24149BM  25134.67168647  .00008830  00000+0  34944-3 0  9995
2 60527  97.4064 212.9472 0006742 266.9656  93.0811 15.25662531 41214
ERNST                   
1 60528U 24149BN  25135.45596794  .00009886  00000+0  36957-3 0  9999
2 60528  97.4124 214.0985 0005878 272.9886  87.0680 15.27531543 41346
GAINDESAT-1A            
1 60529U 24149BP  25135.21218043  .00034976  00000+0  82825-3 0  9995
2 60529  97.4095 216.5245 0005269 243.6053 116.4653 15.41683762 41484
TORO                    
1 60530U 24149BQ  25134.75818141  .00002859  00000+0  27171-3 0  9998
2 60530  97.7157 211.5207 0001517 105.6923 254.4464 14.94255813 40410
HYPSO-2                 
1 60531U 24149BR  25135.09279359  .00004090  00000+0  37313-3 0  9997
2 60531  97.7166 212.1667 0001577 124.2682 235.8689 14.95642387 40489
LEMU NGE                
1 60532U 24149BS  25135.09876451  .00003510  00000+0  32735-3 0  9993
2 60532  97.7192 212.0936 0000760 111.0419 249.0882 14.94862665 40475
LEMUR-2-STELLA          
1 60533U 24149BT  25135.46525598  .00008897  00000+0  69131-3 0  9991
2 60533  97.7071 213.7249 0003916 120.8824 239.2786 15.01537862 40629
SATELIOT_2              
1 60534U 24149BU  25135.26545278  .00002029  00000+0  19469-3 0  9997
2 60534  97.7182 212.1684 0001240  79.5799 280.5561 14.94197263 40503
NIGHTJAR                
1 60535U 24149BV  25135.45844610  .00002143  00000+0  19685-3 0  9998
2 60535  97.7198 212.7421 0001359  69.2571 290.8796 14.95861407 83354
LEMUR-2-MARHISYAM       
1 60536U 24149BW  25135.22420129  .00009626  00000+0  75105-3 0  9991
2 60536  97.7188 213.3896 0002979   0.8448 359.2780 15.01358507 40581
SATELIOT_4              
1 60537U 24149BX  25134.76308760  .00002752  00000+0  25970-3 0  9994
2 60537  97.7098 211.4496 0000421 327.2230  32.8964 14.94574304 40429
PICO-02A021             
1 60538U 24149BY  25135.15425779  .00005665  00000+0  48357-3 0  9999
2 60538  97.7168 212.9064 0000963  54.8086 305.3226 14.98081777 40046
ICEYE-X43               
1 60539U 24149BZ  25135.53527198  .00003543  00000+0  31603-3 0  9999
2 60539  97.7122 212.8520 0002289 330.4132  29.6960 14.96605722 40570
HAWK-10A                
1 60540U 24149CA  25135.23315620  .00002188  00000+0  20668-3 0  9996
2 60540  97.7245 212.5752 0002784 348.4544  11.6612 14.94736067 40501
UMBRA-09                
1 60541U 24149CB  25135.52658554  .00010566  00000+0  75962-3 0  9991
2 60541  97.7235 214.7777 0001496 203.7198 156.3959 15.04437538 40682
QPS-SAR-8 (AMATERU-IV)  
1 60542U 24149CC  25135.32124750  .00004451  00000+0  37409-3 0  9996
2 60542  97.7164 213.2458 0003116 350.4112   9.7051 14.98799803 40571
ARCTIC WEATHER SATELLITE
1 60543U 24149CD  25135.26976012  .00001028  00000+0  11294-3 0  9997
2 60543  97.7185 211.0747 0002241  30.3349 329.7998 14.89750437 40054
CAPELLA-15 (ACADIA-5)   
1 60544U 24149CE  25135.46692229  .00006103  00000+0  60077-3 0  9997
2 60544  97.7123 212.3227 0004380 314.2921  45.7938 14.92424922 40533
HAWK-10B                
1 60545U 24149CF  25135.29997805  .00002374  00000+0  22375-3 0  9992
2 60545  97.7172 212.3780 0005081   0.7920 359.3307 14.94739985 40519
ICEYE-X39               
1 60546U 24149CG  25134.76460495  .00004346  00000+0  38639-3 0  9995
2 60546  97.7135 212.1752 0003464   0.8200 359.3027 14.96612685 40463
UMBRA-10                
1 60547U 24149CH  25134.99439323  .00010884  00000+0  78255-3 0  9999
2 60547  97.7243 214.2370 0001234 159.6343 200.4932 15.04428038 40612
ICEYE-X33               
1 60548U 24149CJ  25135.26951942  .00003149  00000+0  27133-3 0  9992
2 60548  97.7158 213.1728 0004067 344.7573  15.3526 14.98044993 40564
ICEYE-X40               
1 60549U 24149CK  25135.21087121  .00001434  00000+0  13233-3 0  9998
2 60549  97.7146 212.7205 0004594 348.0604  12.0508 14.96193383 40531
SATELIOT_1              
1 60550U 24149CL  25135.17161843  .00002697  00000+0  24657-3 0  9993
2 60550  97.7102 212.4370 0005897 341.9734  18.1277 14.95831009 40520
BRO-14                  
1 60551U 24149CM  25135.28737340  .00001429  00000+0  13665-3 0  9996
2 60551  97.7218 212.6965 0006533   0.7813 359.3417 14.94791032 40523
SATELIOT_3              
1 60552U 24149CN  25134.97649166  .00002564  00000+0  23125-3 0  9993
2 60552  97.7171 212.6154 0007272 351.9963   8.1141 14.96400240 40501
BRO-15                  
1 60553U 24149CP  25135.16193276  .00001335  00000+0  12706-3 0  9990
2 60553  97.7150 212.4677 0007585 349.2971  10.8087 14.95059621 40515
UM5-RIBAT               
1 60554U 24149CQ  25134.98912614  .00002647  00000+0  23110-3 0  9993
2 60554  97.7108 212.7271 0007446 336.8404  23.2481 14.97646424 40523
UM5-EOSAT               
1 60555U 24149CR  25135.27007819  .00003175  00000+0  27338-3 0  9992
2 60555  97.7164 213.3517 0007428 341.3317  18.7632 14.98057642 40571
LASARSAT                
1 62391U 24247Q   25135.49779315  .00015582  00000+0  61919-3 0  9990
2 62391  44.9877 296.4846 0008808 256.5312 103.4588 15.25181808 22236
CROCUBE                 
1 62394U 24247T   25135.42929996  .00016573  00000+0  65442-3 0  9994
2 62394  44.9849 296.8080 0009397 255.1803 104.8038 15.25345647 22223
